NORAD_CAT_ID,OBJECT_NAME,OBJECT_TYPE,EPOCH,MEAN_MOTION,ECCENTRICITY,INCLINATION,RA_OF_ASC_NODE,ARG_OF_PERICENTER,MEAN_ANOMALY,BSTAR,MEAN_MOTION_DOT,MEAN_MOTION_DDOT,TLE_LINE0,TLE_LINE1,TLE_LINE2,SEMIMAJOR_AXIS,PERIOD,APOGEE,PERIGEE,DECAYED
53625.0,STARLINK-4603,PAYLOAD,2023-05-28 04:59:19,15.08840383,0.0001189,53.2158,117.0812,96.0407,264.0721,7.5089e-05,9.07e-06,0.0,0 STARLINK-4603,1 53625U 22104AP  23148.20785972  .00000907  00000-0  75089-4 0  9997,2 53625  53.2158 117.0812 0001189  96.0407 264.0721 15.08840383 42291,6917.879,95.438,540.567,538.922,0.0
53625.0,STARLINK-4603,PAYLOAD,2023-05-28 08:10:05,15.0884206,0.000119,53.2158,116.4859,94.4632,265.6497,8.6521e-05,1.089e-05,0.0,0 STARLINK-4603,1 53625U 22104AP  23148.34033832  .00001089  00000-0  86521-4 0  9998,2 53625  53.2158 116.4859 0001190  94.4632 265.6497 15.08842060 41637,6917.874,95.437,540.562,538.916,0.0
53625.0,STARLINK-4603,PAYLOAD,2023-05-29 08:00:52,15.08842491,0.0001189,53.216,112.0254,93.3936,266.7192,8.8617e-05,1.123e-05,0.0,0 STARLINK-4603,1 53625U 22104AP  23149.33393877  .00001123  00000-0  88617-4 0  9993,2 53625  53.2160 112.0254 0001189  93.3936 266.7192 15.08842491 42468,6917.873,95.437,540.56,538.915,0.0
53625.0,STARLINK-4603,PAYLOAD,2023-05-30 01:30:08,15.08829331,0.0001216,53.2159,108.7542,94.506,265.6071,-2.4496e-05,-6.78e-06,0.0,0 STARLINK-4603,1 53625U 22104AP  23150.06259270 -.00000678  00000-0 -24496-4 0  9994,2 53625  53.2159 108.7542 0001216  94.5060 265.6071 15.08829331 41898,6917.913,95.438,540.619,538.937,0.0
53625.0,STARLINK-4603,PAYLOAD,2023-05-30 04:40:54,15.08831776,0.0001132,53.2158,108.159,89.4273,270.6849,-3.5749e-05,-8.57e-06,0.0,0 STARLINK-4603,1 53625U 22104AP  23150.19507202 -.00000857  00000-0 -35749-4 0  9991,2 53625  53.2158 108.1590 0001132  89.4273 270.6849 15.08831776 42593,6917.906,95.438,540.554,538.987,0.0
53625.0,STARLINK-4603,PAYLOAD,2023-05-30 20:34:45,15.08838929,0.0001251,53.2163,105.1827,85.2383,274.8752,3.7964e-05,3.16e-06,0.0,0 STARLINK-4603,1 53625U 22104AP  23150.85746758  .00000316  00000-0  37964-4 0  9994,2 53625  53.2163 105.1827 0001251  85.2383 274.8752 15.08838929 42694,6917.884,95.438,540.614,538.883,0.0
53625.0,STARLINK-4603,PAYLOAD,2023-05-31 02:56:16,15.08847101,0.0001355,53.2166,103.9951,110.3524,249.7614,0.00012079,1.635e-05,0.0,0 STARLINK-4603,1 53625U 22104AP  23151.12241797  .00001635  00000-0  12079-3 0  9992,2 53625  53.2166 103.9951 0001355 110.3524 249.7614 15.08847101 42053,6917.859,95.437,540.661,538.786,0.0
53625.0,STARLINK-4603,PAYLOAD,2023-05-31 04:31:39,15.0884995,0.0001408,53.2167,103.6984,103.1643,256.9506,0.00012041,1.629e-05,0.0,0 STARLINK-4603,1 53625U 22104AP  23151.18865737  .00001629  00000-0  12041-3 0  9996,2 53625  53.2167 103.6984 0001408 103.1643 256.9506 15.08849950 42748,6917.85,95.437,540.689,538.741,0.0
53625.0,STARLINK-4603,PAYLOAD,2023-05-31 20:25:32,15.08834333,0.0001145,53.2171,100.723,106.5566,253.5552,0.00010184,1.333e-05,0.0,0 STARLINK-4603,1 53625U 22104AP  23151.85106795  .00001333  00000-0  10184-3 0  9990,2 53625  53.2171 100.7230 0001145 106.5566 253.5552 15.08834333 42848,6917.898,95.438,540.555,538.971,0.0
53625.0,STARLINK-4603,PAYLOAD,2023-06-01 02:47:04,15.08841008,0.0001143,53.2167,99.5354,100.3223,259.7898,8.7704e-05,1.108e-05,0.0,0 STARLINK-4603,1 53625U 22104AP  23152.11602487  .00001108  00000-0  87704-4 0  9992,2 53625  53.2167  99.5354 0001143 100.3223 259.7898 15.08841008 42203,6917.877,95.437,540.533,538.952,0.0
53625.0,STARLINK-4603,PAYLOAD,2023-06-01 05:57:50,15.08844284,0.0001155,53.2167,98.9402,104.1473,255.9647,0.00011265,1.506e-05,0.0,0 STARLINK-4603,1 53625U 22104AP  23152.24850209  .00001506  00000-0  11265-3 0  9993,2 53625  53.2167  98.9402 0001155 104.1473 255.9647 15.08844284 42908,6917.867,95.437,540.531,538.933,0.0
53625.0,STARLINK-4603,PAYLOAD,2023-06-02 02:37:51,15.08845058,0.000138,53.2173,95.0722,102.9567,257.1579,-6.2904e-05,-1.289e-05,0.0,0 STARLINK-4603,1 53625U 22104AP  23153.10962667 -.00001289  00000-0 -62904-4 0  9998,2 53625  53.2173  95.0722 0001380 102.9567 257.1579 15.08845058 43031,6917.865,95.437,540.685,538.775,0.0
53625.0,STARLINK-4603,PAYLOAD,2023-06-03 02:28:38,15.08842844,0.0001496,53.2163,90.6132,98.2722,261.844,6.484e-05,7.44e-06,0.0,0 STARLINK-4603,1 53625U 22104AP  23154.10322626  .00000744  00000-0  64840-4 0  9998,2 53625  53.2163  90.6132 0001496  98.2722 261.8440 15.08842844 42504,6917.872,95.437,540.772,538.702,0.0
53625.0,STARLINK-4603,PAYLOAD,2023-06-03 19:57:53,15.08837811,0.0001496,53.2169,87.3416,95.4183,264.698,5.9392e-05,6.57e-06,0.0,0 STARLINK-4603,1 53625U 22104AP  23154.83187114  .00000657  00000-0  59392-4 0  9998,2 53625  53.2169  87.3416 0001496  95.4183 264.6980 15.08837811 43293,6917.887,95.438,540.787,538.717,0.0
53625.0,STARLINK-4603,PAYLOAD,2023-06-04 02:19:26,15.08842618,0.0001329,53.2169,86.1586,94.2831,265.8313,4.4817e-05,4.25e-06,0.0,0 STARLINK-4603,1 53625U 22104AP  23155.09682912  .00000425  00000-0  44817-4 0  9992,2 53625  53.2169  86.1586 0001329  94.2831 265.8313 15.08842618 42653,6917.872,95.437,540.657,538.818,0.0
53625.0,STARLINK-4603,PAYLOAD,2023-06-04 19:48:41,15.08838976,0.0001258,53.2165,82.8842,94.9806,265.133,-4.2855e-05,-9.7e-06,0.0,0 STARLINK-4603,1 53625U 22104AP  23155.82547530 -.00000970  00000-0 -42855-4 0  9996,2 53625  53.2165  82.8842 0001258  94.9806 265.1330 15.08838976 42763,6917.884,95.438,540.619,538.878,0.0
53625.0,STARLINK-4603,PAYLOAD,2023-06-05 05:20:59,15.08846325,0.000123,53.2165,81.0996,93.0279,267.0854,2.9414e-05,1.8e-06,0.0,0 STARLINK-4603,1 53625U 22104AP  23156.22290790  .00000180  00000-0  29414-4 0  9991,2 53625  53.2165  81.0996 0001230  93.0279 267.0854 15.08846325 42824,6917.861,95.437,540.577,538.875,0.0
53625.0,STARLINK-4603,PAYLOAD,2023-06-05 11:42:32,15.08834468,0.0001202,53.2161,79.9091,100.0281,260.0846,2.9588e-05,1.83e-06,0.0,0 STARLINK-4603,1 53625U 22104AP  23156.48787570  .00000183  00000-0  29588-4 0  9991,2 53625  53.2161  79.9091 0001202 100.0281 260.0846 15.08834468 43542,6917.897,95.438,540.594,538.931,0.0
53625.0,STARLINK-4603,PAYLOAD,2023-06-05 19:39:28,15.08832757,0.0001093,53.2156,78.4226,94.9515,265.1602,-6.8342e-06,-3.97e-06,0.0,0 STARLINK-4603,1 53625U 22104AP  23156.81907910 -.00000397  00000-0 -68342-5 0  9991,2 53625  53.2156  78.4226 0001093  94.9515 265.1602 15.08832757 43599,6917.903,95.438,540.524,539.011,0.0
53625.0,STARLINK-4603,PAYLOAD,2023-06-06 03:36:23,15.08841434,0.0001284,53.2171,76.9352,88.5795,271.5344,6.0883e-05,6.81e-06,0.0,0 STARLINK-4603,1 53625U 22104AP  23157.15027239  .00000681  00000-0  60883-4 0  9991,2 53625  53.2171  76.9352 0001284  88.5795 271.5344 15.08841434 42966,6917.876,95.437,540.629,538.853,0.0
53625.0,STARLINK-4603,PAYLOAD,2023-06-06 17:54:52,15.08835947,0.0001044,53.2164,74.2607,87.4379,272.6732,5.9843e-05,6.65e-06,0.0,0 STARLINK-4603,1 53625U 22104AP  23157.74643630  .00000665  00000-0  59843-4 0  9991,2 53625  53.2164  74.2607 0001044  87.4379 272.6732 15.08835947 43058,6917.893,95.438,540.48,539.036,0.0
53625.0,STARLINK-4603,PAYLOAD,2023-06-06 19:30:15,15.08836181,0.0001082,53.2165,73.963,95.6527,264.4589,4.3658e-05,4.07e-06,0.0,0 STARLINK-4603,1 53625U 22104AP  23157.81267710  .00000407  00000-0  43658-4 0  9991,2 53625  53.2165  73.9630 0001082  95.6527 264.4589 15.08836181 43745,6917.892,95.438,540.506,539.009,0.0
53625.0,STARLINK-4603,PAYLOAD,2023-06-07 03:27:10,15.08836849,0.0001216,53.2175,72.4781,77.576,282.5368,6.9475e-05,8.18e-06,0.0,0 STARLINK-4603,1 53625U 22104AP  23158.14387688  .00000818  00000-0  69475-4 0  9996,2 53625  53.2175  72.4781 0001216  77.5760 282.5368 15.08836849 43796,6917.89,95.438,540.596,538.914,0.0
53625.0,STARLINK-4603,PAYLOAD,2023-06-07 17:45:39,15.08831117,0.0001249,53.2165,69.7998,90.1775,269.936,5.1848e-05,5.37e-06,0.0,0 STARLINK-4603,1 53625U 22104AP  23158.74004262  .00000537  00000-0  51848-4 0  9999,2 53625  53.2165  69.7998 0001249  90.1775 269.9360 15.08831117 43881,6917.908,95.438,540.637,538.908,0.0
53625.0,STARLINK-4603,PAYLOAD,2023-06-08 03:17:57,15.08844272,0.0001141,53.2166,68.0152,93.1599,266.9524,4.1582e-05,3.74e-06,0.0,0 STARLINK-4603,1 53625U 22104AP  23159.13747542  .00000374  00000-0  41582-4 0  9991,2 53625  53.2166  68.0152 0001141  93.1599 266.9524 15.08844272 43261,6917.867,95.437,540.522,538.943,0.0
53625.0,STARLINK-4603,PAYLOAD,2023-06-08 22:22:35,15.08832145,9.39e-05,53.2165,64.4454,92.7196,267.3904,0.00015687,2.209e-05,0.0,0 STARLINK-4603,1 53625U 22104AP  23159.93236003  .00002209  00000-0  15687-3 0  9999,2 53625  53.2165  64.4454 0000939  92.7196 267.3904 15.08832145 43383,6917.904,95.438,540.419,539.12,0.0
53625.0,STARLINK-4603,PAYLOAD,2023-06-09 03:08:44,15.08847741,0.0001218,53.216,63.5531,94.6458,265.4673,0.00010662,1.41e-05,0.0,0 STARLINK-4603,1 53625U 22104AP  23160.13107179  .00001410  00000-0  10662-3 0  9995,2 53625  53.2160  63.5531 0001218  94.6458 265.4673 15.08847741 43411,6917.857,95.437,540.564,538.879,0.0
53625.0,STARLINK-4603,PAYLOAD,2023-06-09 11:05:40,15.08848904,0.0001171,53.2174,62.0687,69.3218,290.7899,7.4337e-05,8.96e-06,0.0,0 STARLINK-4603,1 53625U 22104AP  23160.46227153  .00000896  00000-0  74337-4 0  9993,2 53625  53.2174  62.0687 0001171  69.3218 290.7899 15.08848904 44147,6917.853,95.437,540.528,538.908,0.0
53625.0,STARLINK-4603,PAYLOAD,2023-06-10 02:59:31,15.08844937,0.0001314,53.2176,59.0923,99.5768,260.5373,4.0046e-05,3.5e-06,0.0,0 STARLINK-4603,1 53625U 22104AP  23161.12467589  .00000350  00000-0  40046-4 0  9991,2 53625  53.2176  59.0923 0001314  99.5768 260.5373 15.08844937 43561,6917.865,95.437,540.639,538.821,0.0
53625.0,STARLINK-4603,PAYLOAD,2023-06-10 17:18:00,15.08838917,0.0001088,53.217,56.4163,116.2235,243.8869,-2.9808e-06,-3.35e-06,0.0,0 STARLINK-4603,1 53625U 22104AP  23161.72084016 -.00000335  00000-0 -29808-5 0  9996,2 53625  53.2170  56.4163 0001088 116.2235 243.8869 15.08838917 43651,6917.884,95.438,540.501,538.996,0.0
